NORAD_CAT_ID,OBJECT_NAME,OBJECT_TYPE,EPOCH,MEAN_MOTION,ECCENTRICITY,INCLINATION,RA_OF_ASC_NODE,ARG_OF_PERICENTER,MEAN_ANOMALY,BSTAR,MEAN_MOTION_DOT,MEAN_MOTION_DDOT,TLE_LINE0,TLE_LINE1,TLE_LINE2,SEMIMAJOR_AXIS,PERIOD,APOGEE,PERIGEE,DECAYED
55772.0,STARLINK-5835,PAYLOAD,2024-01-04 13:35:39,14.9833131,0.0003069,70.0001,69.1534,271.6021,88.4786,4.6059e-05,4.57e-06,0.0,0 STARLINK-5835,1 55772U 23028AH  24004.56642740  .00000457  00000-0  46059-4 0  9999,2 55772  70.0001  69.1534 0003069 271.6021  88.4786 14.98331310 47433,6950.189,96.107,574.187,569.921,0.0
55772.0,STARLINK-5835,PAYLOAD,2024-01-05 04:00:52,14.98325561,0.0003095,70.0006,67.6393,270.7782,89.3022,4.2315e-05,4.12e-06,0.0,0 STARLINK-5835,1 55772U 23028AH  24005.16727104  .00000412  00000-0  42315-4 0  9996,2 55772  70.0006  67.6393 0003095 270.7782  89.3022 14.98325561 47521,6950.207,96.107,574.223,569.921,0.0
55772.0,STARLINK-5835,PAYLOAD,2024-01-05 13:37:40,14.98323861,0.0003038,70.0003,66.6294,270.7947,89.2864,2.5839e-05,2.15e-06,0.0,0 STARLINK-5835,1 55772U 23028AH  24005.56783418  .00000215  00000-0  25839-4 0  9993,2 55772  70.0003  66.6294 0003038 270.7947  89.2864 14.98323861 47587,6950.212,96.107,574.188,569.965,0.0
55772.0,STARLINK-5835,PAYLOAD,2024-01-06 04:02:53,14.98331459,0.0003,70.0001,65.1141,266.7537,93.3279,1.2217e-06,-7.8e-07,0.0,0 STARLINK-5835,1 55772U 23028AH  24006.16867019 -.00000078  00000-0  12217-5 0  9995,2 55772  70.0001  65.1141 0003000 266.7537  93.3279 14.98331459 47677,6950.188,96.107,574.138,569.968,0.0
55772.0,STARLINK-5835,PAYLOAD,2024-01-06 12:03:33,14.98331113,0.0002997,70.0002,64.2727,266.3139,93.7677,6.8013e-07,-8.5e-07,0.0,0 STARLINK-5835,1 55772U 23028AH  24006.50247023 -.00000085  00000-0  68013-6 0  9994,2 55772  70.0002  64.2727 0002997 266.3139  93.7677 14.98331113 47725,6950.189,96.107,574.137,569.971,0.0
55772.0,STARLINK-5835,PAYLOAD,2024-01-06 13:39:41,14.98331401,0.0002999,70.0001,64.1044,266.4511,93.6305,4.0703e-06,-4.4e-07,0.0,0 STARLINK-5835,1 55772U 23028AH  24006.56922994 -.00000044  00000-0  40703-5 0  9997,2 55772  70.0001  64.1044 0002999 266.4511  93.6305 14.98331401 47730,6950.189,96.107,574.138,569.969,0.0
55772.0,STARLINK-5835,PAYLOAD,2024-01-07 04:04:53,14.98329768,0.0003097,69.9999,62.5897,266.5494,93.5311,5.9845e-05,6.21e-06,0.0,0 STARLINK-5835,1 55772U 23028AH  24007.17006878  .00000621  00000-0  59845-4 0  9995,2 55772  69.9999  62.5897 0003097 266.5494  93.5311 14.98329768 47821,6950.194,96.107,574.211,569.906,0.0
55772.0,STARLINK-5835,PAYLOAD,2024-01-07 13:41:42,14.9833164,0.0003085,69.9999,61.5795,266.2095,93.8711,7.4293e-05,7.94e-06,0.0,0 STARLINK-5835,1 55772U 23028AH  24007.57062712  .00000794  00000-0  74293-4 0  9993,2 55772  69.9999  61.5795 0003085 266.2095  93.8711 14.98331640 47883,6950.188,96.107,574.197,569.909,0.0
55772.0,STARLINK-5835,PAYLOAD,2024-01-08 04:06:54,14.98332562,0.0003016,69.9999,60.0646,265.6125,94.469,2.393e-05,1.93e-06,0.0,0 STARLINK-5835,1 55772U 23028AH  24008.17146708  .00000193  00000-0  23930-4 0  9993,2 55772  69.9999  60.0646 0003016 265.6125  94.4690 14.98332562 47970,6950.185,96.107,574.146,569.954,0.0
55772.0,STARLINK-5835,PAYLOAD,2024-01-08 12:07:35,14.98332019,0.0003026,69.9999,59.2227,265.5879,94.4934,1.6918e-05,1.09e-06,0.0,0 STARLINK-5835,1 55772U 23028AH  24008.50526701  .00000109  00000-0  16918-4 0  9990,2 55772  69.9999  59.2227 0003026 265.5879  94.4934 14.98332019 48026,6950.187,96.107,574.155,569.949,0.0
55772.0,STARLINK-5835,PAYLOAD,2024-01-09 04:08:55,14.98330334,0.0002971,70.0,57.5391,265.6751,94.4069,-1.9796e-05,-3.29e-06,0.0,0 STARLINK-5835,1 55772U 23028AH  24009.17286836 -.00000329  00000-0 -19796-4 0  9999,2 55772  70.0000  57.5391 0002971 265.6751  94.4069 14.98330334 48121,6950.192,96.107,574.122,569.992,0.0
55772.0,STARLINK-5835,PAYLOAD,2024-01-09 12:09:36,14.98330261,0.0002965,70.0,56.6975,264.5089,95.5731,-1.7181e-05,-2.98e-06,0.0,0 STARLINK-5835,1 55772U 23028AH  24009.50666816 -.00000298  00000-0 -17181-4 0  9997,2 55772  70.0000  56.6975 0002965 264.5089  95.5731 14.98330261 48176,6950.192,96.107,574.118,569.996,0.0
55772.0,STARLINK-5835,PAYLOAD,2024-01-10 04:10:56,14.98331731,0.0002961,70.0,55.0139,264.2434,95.8387,1.9731e-05,1.42e-06,0.0,0 STARLINK-5835,1 55772U 23028AH  24010.17426530  .00000142  00000-0  19731-4 0  9998,2 55772  70.0000  55.0139 0002961 264.2434  95.8387 14.98331731 48272,6950.188,96.107,574.11,569.995,0.0
55772.0,STARLINK-5835,PAYLOAD,2024-01-10 10:35:28,14.98332188,0.0002925,70.0001,54.341,261.4094,98.6733,2.5497e-05,2.11e-06,0.0,0 STARLINK-5835,1 55772U 23028AH  24010.44130443  .00000211  00000-0  25497-4 0  9996,2 55772  70.0001  54.3410 0002925 261.4094  98.6733 14.98332188 48316,6950.186,96.107,574.084,570.018,0.0
55772.0,STARLINK-5835,PAYLOAD,2024-01-11 04:12:57,14.98325066,0.0002965,69.9996,52.4869,265.8646,94.2174,-1.0805e-05,-2.22e-06,0.0,0 STARLINK-5835,1 55772U 23028AH  24011.17567024 -.00000222  00000-0 -10805-4 0  9997,2 55772  69.9996  52.4869 0002965 265.8646  94.2174 14.98325066 48428,6950.208,96.107,574.134,570.012,0.0
55772.0,STARLINK-5835,PAYLOAD,2024-01-11 12:13:38,14.98328077,0.0002923,69.9997,51.6454,265.4751,94.6074,2.5045e-05,2.06e-06,0.0,0 STARLINK-5835,1 55772U 23028AH  24011.50946802  .00000206  00000-0  25045-4 0  9991,2 55772  69.9997  51.6454 0002923 265.4751  94.6074 14.98328077 48470,6950.199,96.107,574.095,570.032,0.0
55772.0,STARLINK-5835,PAYLOAD,2024-01-12 04:14:58,14.98330179,0.0002917,69.9996,49.9619,265.3984,94.6842,3.8595e-06,-4.7e-07,0.0,0 STARLINK-5835,1 55772U 23028AH  24012.17706716 -.00000047  00000-0  38595-5 0  9992,2 55772  69.9996  49.9619 0002917 265.3984  94.6842 14.98330179 48572,6950.192,96.107,574.085,570.03,0.0
55772.0,STARLINK-5835,PAYLOAD,2024-01-12 12:15:38,14.98332348,0.0002901,69.9996,49.1203,265.1845,94.8983,3.0676e-05,2.73e-06,0.0,0 STARLINK-5835,1 55772U 23028AH  24012.51086501  .00000273  00000-0  30676-4 0  9994,2 55772  69.9996  49.1203 0002901 265.1845  94.8983 14.98332348 48624,6950.186,96.107,574.067,570.034,0.0
55772.0,STARLINK-5835,PAYLOAD,2024-01-13 04:16:59,14.98328229,0.0002911,69.9996,47.4377,262.1124,97.9705,1.8232e-05,1.25e-06,0.0,0 STARLINK-5835,1 55772U 23028AH  24013.17846782  .00000125  00000-0  18232-4 0  9992,2 55772  69.9996  47.4377 0002911 262.1124  97.9705 14.98328229 48725,6950.198,96.107,574.087,570.04,0.0
55772.0,STARLINK-5835,PAYLOAD,2024-01-13 12:17:39,14.98330459,0.0002882,69.9996,46.5961,262.2496,97.8336,4.3648e-05,4.28e-06,0.0,0 STARLINK-5835,1 55772U 23028AH  24013.51226589  .00000428  00000-0  43648-4 0  9992,2 55772  69.9996  46.5961 0002882 262.2496  97.8336 14.98330459 48776,6950.191,96.107,574.06,570.053,0.0
55772.0,STARLINK-5835,PAYLOAD,2024-01-14 04:19:00,14.98327875,0.0002688,70.0,44.9133,260.8944,99.1911,1.0299e-05,3e-07,0.0,0 STARLINK-5835,1 55772U 23028AH  24014.17986894  .00000030  00000-0  10299-4 0  9992,2 55772  70.0000  44.9133 0002688 260.8944  99.1911 14.98327875 48877,6950.199,96.107,573.933,570.196,0.0
55772.0,STARLINK-5835,PAYLOAD,2024-01-14 12:19:40,14.98329344,0.0002675,70.0001,44.0716,260.7612,99.3245,2.508e-05,2.06e-06,0.0,0 STARLINK-5835,1 55772U 23028AH  24014.51366802  .00000206  00000-0  25080-4 0  9990,2 55772  70.0001  44.0716 0002675 260.7612  99.3245 14.98329344 48924,6950.195,96.107,573.919,570.201,0.0
55772.0,STARLINK-5835,PAYLOAD,2024-01-15 02:44:53,14.9833332,0.0002704,70.0,42.5568,263.2789,96.8062,6.121e-05,6.38e-06,0.0,0 STARLINK-5835,1 55772U 23028AH  24015.11450364  .00000638  00000-0  61210-4 0  9998,2 55772  70.0000  42.5568 0002704 263.2789  96.8062 14.98333320 49016,6950.183,96.107,573.927,570.168,0.0
55772.0,STARLINK-5835,PAYLOAD,2024-01-15 12:21:41,14.98335449,0.000269,70.0001,41.5468,261.6355,98.4499,8.0061e-05,8.63e-06,0.0,0 STARLINK-5835,1 55772U 23028AH  24015.51506081  .00000863  00000-0  80061-4 0  9995,2 55772  70.0001  41.5468 0002690 261.6355  98.4499 14.98335449 49072,6950.176,96.107,573.911,570.171,0.0
55772.0,STARLINK-5835,PAYLOAD,2024-01-16 01:10:46,14.98326216,0.0002542,70.0006,40.2002,256.3262,103.7615,5.0521e-06,-3.3e-07,0.0,0 STARLINK-5835,1 55772U 23028AH  24016.04914823 -.00000033  00000-0  50521-5 0  9990,2 55772  70.0006  40.2002 0002542 256.3262 103.7615 14.98326216 49152,6950.205,96.107,573.836,570.303,0.0
55772.0,STARLINK-5835,PAYLOAD,2024-01-16 10:47:35,14.98324251,0.0002591,70.0006,39.1904,255.7746,104.3125,-2.3816e-05,-3.77e-06,0.0,0 STARLINK-5835,1 55772U 23028AH  24016.44971119 -.00000377  00000-0 -23816-4 0  9993,2 55772  70.0006  39.1904 0002591 255.7746 104.3125 14.98324251 49211,6950.211,96.107,573.876,570.275,0.0
55772.0,STARLINK-5835,PAYLOAD,2024-01-17 04:25:03,14.98331713,0.0002597,70.0006,37.3384,253.9102,106.1771,-1.1317e-05,-2.28e-06,0.0,0 STARLINK-5835,1 55772U 23028AH  24017.18406609 -.00000228  00000-0 -11317-4 0  9990,2 55772  70.0006  37.3384 0002597 253.9102 106.1771 14.98331713 49325,6950.188,96.107,573.858,570.248,0.0
55772.0,STARLINK-5835,PAYLOAD,2024-01-17 10:49:35,14.98331923,0.0002571,70.0007,36.6655,253.4585,106.6291,-2.7266e-06,-1.25e-06,0.0,0 STARLINK-5835,1 55772U 23028AH  24017.45110562 -.00000125  00000-0 -27266-5 0  9997,2 55772  70.0007  36.6655 0002571 253.4585 106.6291 14.98331923 49360,6950.187,96.107,573.839,570.265,0.0
55772.0,STARLINK-5835,PAYLOAD,2024-01-18 04:27:04,14.98329203,0.0002689,70.0003,34.8142,259.6862,100.3994,8.4605e-05,9.17e-06,0.0,0 STARLINK-5835,1 55772U 23028AH  24018.18546450  .00000917  00000-0  84605-4 0  9993,2 55772  70.0003  34.8142 0002689 259.6862 100.3994 14.98329203 49474,6950.195,96.107,573.929,570.191,0.0
55772.0,STARLINK-5835,PAYLOAD,2024-01-18 10:51:36,14.98329797,0.000274,70.0003,34.1408,263.68,96.4047,8.1411e-05,8.79e-06,0.0,0 STARLINK-5835,1 55772U 23028AH  24018.45250458  .00000879  00000-0  81411-4 0  9992,2 55772  70.0003  34.1408 0002740 263.6800  96.4047 14.98329797 49514,6950.194,96.107,573.963,570.154,0.0
